{"fetched_at":"2026-03-30T06:02:59Z","count":15439,"tles":[{"name":"STARLINK-32254","line1":"1 60427U 24144C   26087.40964992 -.00000430  00000+0 -23859-5 0  9990","line2":"2 60427  53.1599 130.2961 0001206  73.6045 286.5089 15.30189366 92213","category":"Starlink"}]}